GALAXY 34 (G-34)        
1 54027U 22128B   23288.50484878  .00000072  00000+0  00000+0 0  9997
2 54027   0.0142 204.8244 0001470   1.9644 229.7905  1.00270190  4128
ANGOSAT 2               
1 54033U 22131A   23288.06229851  .00000147  00000+0  00000+0 0  9990
2 54033   0.0194 194.9056 0001434  97.2159 136.6638  1.00271305  3678
EUTELSAT HOTBIRD 13F    
1 54048U 22134A   23288.54585833  .00000100  00000+0  00000+0 0  9996
2 54048   0.0808 286.5381 0004829 336.7353 330.0861  1.00272381  3665
EUTELSAT HOTBIRD 13G    
1 54225U 22146A   23288.24979969  .00000100  00000+0  00000+0 0  9990
2 54225   0.0604 251.8141 0006615 331.2268 263.4476  1.00270420  3444
CHINASAT 19 (ZX 19)     
1 54230U 22148A   23288.60579198 -.00000067  00000+0  00000+0 0  9991
2 54230   0.0198 140.9948 0009015  99.7472 164.6124  1.00271815  3587
GALAXY 31 (G-31)        
1 54243U 22153A   23288.50963861  .00000026  00000+0  00000+0 0  9998
2 54243   0.0217 258.7260 0002406 342.6094 204.9453  1.00273600  3357
GALAXY 32 (G-32)        
1 54244U 22153B   23288.45704972 -.00000161  00000+0  00000+0 0  9990
2 54244   0.0112 243.4107 0000239  57.7678 156.0784  1.00270090  3362
EUTELSAT 10B            
1 54259U 22157A   23288.54524917  .00000081  00000+0  00000+0 0  9999
2 54259   0.0553  86.1957 0005171 140.1150   3.8254  1.00270655  3249
GALAXY 35 (G-35)        
1 54741U 22170A   23288.52471183 -.00000149  00000+0  00000+0 0  9990
2 54741   0.0163 207.8603 0001327   2.2505 269.4712  1.00269638  3117
GALAXY 36 (G-36)        
1 54742U 22170B   23288.52198993 -.00000172  00000+0  00000+0 0  9992
2 54742   0.0183 205.2551 0002167 285.6149 351.8297  1.00270243  3138
METEOSAT-12 (MTG-I1)    
1 54743U 22170C   23288.29563174 -.00000020  00000+0  00000+0 0  9996
2 54743   0.4963 326.0216 0001912 207.2711 313.1458  1.00271897  3193
SHIJIAN-23 (SJ-23)      
1 55131U 23002A   23288.63810978 -.00000008  00000+0  00000+0 0  9994
2 55131   1.1915  90.8776 0000897 102.2689 233.2316  1.00157177  2723
USA 340                 
1 55138U 22144E   23288.28217910  .00000021  00000+0  00000+0 0  9999
2 55138   3.2224  64.7744 0006455 209.6945 104.8295  0.99582199    61
USA 342                 
1 55263U 23008A   23286.52578172 -.00000014  00000+0  00000+0 0  9996
2 55263   0.0505  44.9621 0000376 227.2239 183.4678  1.00270773  2716
LDPE-3A                 
1 55264U 23008B   23288.52618806 -.00000289  00000+0  00000+0 0  9992
2 55264   0.6075  89.0864 0002465 194.8819  20.8727  1.00637736  2027
ELEKTRO-L 4             
1 55506U 23016A   23288.47331189 -.00000044  00000+0  00000+0 0  9999
2 55506   0.0486 231.3251 0002110  32.3285  96.3600  1.00276619  2531
AMAZONAS NEXUS          
1 55508U 23017A   23288.47417403 -.00000269  00000+0  00000+0 0  9995
2 55508   0.0218  70.6729 0001846  89.2147 333.5532  1.00269377  2480
CHINASAT 26 (ZX 26)     
1 55686U 23023A   23288.36646594 -.00000341  00000+0  00000+0 0  9993
2 55686   0.0613  71.7951 0002125  54.5491 154.3914  1.00270042  2443
LUCH-5X (OLYMP-K 2)     
1 55841U 23031A   23288.54385681  .00000034  00000+0  00000+0 0  9990
2 55841   0.0440 318.1269 0002229 269.0898 355.6121  1.00273845  2173
GAOFEN 13-02            
1 55912U 23036A   23288.52685138 -.00000222  00000+0  00000+0 0  9992
2 55912   2.5773 301.9656 0003826 289.1874 129.0440  1.00269889  2315
SES-18                  
1 55970U 23038A   23288.48208064 -.00000088  00000+0  00000+0 0  9992
2 55970   0.0067 226.7739 0002445  10.2301 217.2280  1.00272697  2311
SES-19                  
1 55971U 23038B   23288.53703207  .00000101  00000+0  00000+0 0  9993
2 55971   0.0230 273.3054 0001399 287.4181 241.5416  1.00269868  2286
INTELSAT 40E (IS-40E)   
1 56174U 23052A   23288.35452442 -.00000161  00000+0  00000+0 0  9994
2 56174   0.0184 185.1639 0002892   5.6441 229.4752  1.00272426  2032
VIASAT-3                
1 56370U 23060A   23285.21482439  .00000119  00000+0  00000+0 0  9994
2 56370   0.1396  90.2690 0003434 285.2286 278.5692  1.01001236  1627
ARCTURUS                
1 56371U 23060B   23288.62706275  .00000141  00000+0  00000+0 0  9995
2 56371   0.2458  88.5941 0002491 167.9444 190.1294  1.00269235  1677
GS-1                    
1 56372U 23060C   23287.79753895 -.00000350  00000+0  00000+0 0  9996
2 56372   0.3191  85.0419 0000970 182.1531 159.4460  1.00267632  1651
BEIDOU-3 G4             
1 56564U 23066A   23288.60405844 -.00000102  00000+0  00000+0 0  9999
2 56564   2.7440 288.6492 0005992 223.1667 249.5784  1.00271931  1617
ARABSAT-7B (BADR-8)     
1 56757U 23075A   23287.02618932  .00000156  00000+0  00000+0 0  9990
2 56757   0.0722  20.3232 0001927 329.7759  68.6641  1.00276607  1333
IRNSS-1J (NVS-01)       
1 56759U 23076A   23288.48865943 -.00000330  00000+0  00000+0 0  9995
2 56759   4.6361 271.2968 0007266 348.1904  69.7368  1.00267412  1338
H2SAT (HEINRICH HERTZ)  
1 57213U 23093A   23288.29563174  .00000013  00000+0  00000+0 0  9997
2 57213   0.0460  91.0554 0001064 182.4838 216.9531  1.00272768  1134
JUPITER 3 (ECHOSTAR 24) 
1 57479U 23108A   23288.19928133 -.00000137  00000+0  00000+0 0  9995
2 57479   0.0376  71.2291 0000505 208.2970  80.5050  1.00268103   852
GALAXY 37 (G-37)        
1 57493U 23112A   23288.50564463  .00000061  00000+0  00000+0 0  9998
2 57493   0.0587  67.7622 0002982 121.2455 249.8287  1.00272314   731
LUDI TANCE-4 01A        
1 57624U 23120A   23288.18507775 -.00000182  00000+0  00000+0 0  9995
2 57624  16.0328 217.5734 0002334 349.0626 333.0829  1.00267871   759
